LUCH 5V (SDCM/PRN 141)  
1 39727U 14023A   22246.08528271 -.00000269  00000+0  00000+0 0  9993
2 39727   1.6755  76.3072 0003387 100.9929 290.3506  1.00270174548644
GPS BIIF-6  (PRN 06)    
1 39741U 14026A   22245.41053189 -.00000056  00000+0  00000+0 0  9993
2 39741  56.6006  25.2374 0026437 304.8177  54.9454  2.00550454 60781
COSMOS 2500 (755)       
1 40001U 14032A   22245.62345855 -.00000059  00000+0  00000+0 0  9991
2 40001  65.7742   0.4138 0007409 189.1300 131.7043  2.13102464 63962
GPS BIIF-7  (PRN 09)    
1 40105U 14045A   22244.99398142  .00000009  00000+0  00000+0 0  9990
2 40105  54.7058 143.7488 0022121 110.9822 249.3147  2.00552420 58314
GSAT0201 (PRN E18)      
1 40128U 14050A   22245.28625305 -.00000076  00000+0  00000+0 0  9993
2 40128  50.2307 329.2221 1622348 126.8459 249.1700  1.85518939 52645
GSAT0202 (PRN E14)      
1 40129U 14050B   22245.54698921 -.00000075  00000+0  00000+0 0  9996
2 40129  50.2542 328.2744 1619395 127.6667 248.1701  1.85519472 54818
IRNSS-1C                
1 40269U 14061A   22246.44175831 -.00000166  00000+0  00000+0 0  9994
2 40269   3.1234 125.6153 0020348   5.1789  93.9822  1.00272702 28965
GPS BIIF-8  (PRN 03)    
1 40294U 14068A   22244.86500479  .00000001  00000+0  00000+0 0  9990
2 40294  55.8737  84.9171 0042901  58.3269 302.1632  2.00576846 57440
COSMOS 2501 (702K)      
1 40315U 14075A   22245.15960529  .00000094  00000+0  00000+0 0  9993
2 40315  63.6809 238.4841 0019562 212.4126 280.9473  2.13101473 60368
GPS BIIF-9  (PRN 26)    
1 40534U 15013A   22245.50959607  .00000059  00000+0  00000+0 0  9994
2 40534  53.6586 261.5016 0070387  20.2618 340.0537  2.00547499 54074
GSAT0203 (PRN E26)      
1 40544U 15017A   22245.46128197 -.00000068  00000+0  00000+0 0  9997
2 40544  56.8198  19.2690 0002768 215.1616 144.8265  1.70476060 45615
GSAT0204 (PRN E22)      
1 40545U 15017B   22245.12758010 -.00000067  00000+0  00000+0 0  9993
2 40545  56.8251  19.2907 0003183 195.8327 164.1636  1.70475592  8651
IRNSS-1D                
1 40547U 15018A   22245.82518772 -.00000262  00000+0  00000+0 0  9999
2 40547  28.8185 263.8388 0020442 192.7435 294.2132  1.00271501 27374
BEIDOU 17 (C31)         
1 40549U 15019A   22245.65491361 -.00000168  00000+0  00000+0 0  9992
2 40549  51.7519 311.8609 0038327 196.1769 165.1926  1.00280988 27210
GPS BIIF-10 (PRN 08)    
1 40730U 15033A   22244.66949427 -.00000054  00000+0  00000+0 0  9995
2 40730  55.1396 323.6093 0074224   7.6852 352.4882  2.00574251 52227
BEIDOU 18 (C57)         
1 40748U 15037A   22245.48300716 -.00000083  00000+0  00000+0 0  9993
2 40748  55.8382 349.1558 0002522  61.8830 267.2272  1.86233478 48347
BEIDOU 19 (C58)         
1 40749U 15037B   22245.86976810 -.00000085  00000+0  00000+0 0  9992
2 40749  55.8434 349.1327 0002072 323.3187  39.3119  1.86232653 48354
GSAT0205 (PRN E24)      
1 40889U 15045A   22243.72165308  .00000053  00000+0  00000+0 0  9995
2 40889  55.5779 259.8832 0003762 347.8496  12.1762  1.70473384 43390
GSAT0206 (PRN E30)      
1 40890U 15045B   22246.28877121  .00000058  00000+0  00000+0 0  9999
2 40890  55.5754 259.8079 0002812 316.9942  43.0207  1.70473331 43463
BEIDOU 20 (C18)         
1 40938U 15053A   22246.36769910 -.00000097  00000+0  00000+0 0  9990
2 40938  51.3811 274.9762 0046149 199.9662  96.5328  1.00274800 25482
GPS BIIF-11 (PRN 10)    
1 41019U 15062A   22244.71735219  .00000001  00000+0  00000+0 0  9997
2 41019  55.8612  84.7674 0079921 217.3213 142.1917  2.00562598 50060
GSAT-15 (GAGAN/PRN 139) 
1 41028U 15065A   22246.54146450 -.00000260  00000+0  00000+0 0  9994
2 41028   0.0428 294.2152 0002836 184.1007 152.7716  1.00272391 24994
GSAT0209 (PRN E09)      
1 41174U 15079A   22245.87639828  .00000006  00000+0  00000+0 0  9999
2 41174  55.1732 139.2747 0003240 327.2844  32.7628  1.70473943 41779
GSAT0208 (PRN E08)      
1 41175U 15079B   22246.09590427  .00000004  00000+0  00000+0 0  9994
2 41175  55.1713 139.2672 0002052 344.9738  15.0865  1.70473710 41773
IRNSS-1E                
1 41241U 16003A   22245.47688319 -.00000297  00000+0  00000+0 0  9990
2 41241  30.1467  83.4152 0019737 175.0369   6.7046  1.00273903 24325
GPS BIIF-12 (PRN 32)    
1 41328U 16007A   22245.30449257  .00000007  00000+0  00000+0 0  9996
2 41328  54.9213 144.4265 0062494 230.2147 129.2916  2.00567194 48088
COSMOS 2514 (751)       
1 41330U 16008A   22245.90393324 -.00000060  00000+0  00000+0 0  9999
2 41330  65.5748   0.0772 0011215 204.1307 155.8386  2.13102601 51144
IRNSS-1F                
1 41384U 16015A   22246.19910437  .00000157  00000+0  00000+0 0  9994
2 41384   2.2827 151.0750 0017679 182.8736 112.4268  1.00271297 23791
BEIDOU IGSO-6 (C13)     
1 41434U 16021A   22245.90378383 -.00000133  00000+0  00000+0 0  9998
2 41434  58.2138  52.0309 0044651 214.9766 135.9819  1.00268058 23606
IRNSS-1G                
1 41469U 16027A   22245.82278215 -.00000336  00000+0  00000+0 0  9991
2 41469   2.2050 153.8627 0003876 344.2225 269.6134  1.00267727 23304
GSAT0211 (PRN E02)      
1 41549U 16030A   22245.04169803  .00000056  00000+0  00000+0 0  9998
2 41549  55.7221 259.7835 0004527 303.1490  56.8422  1.70474909 39071
GSAT0210 (PRN E01)      
1 41550U 16030B   22244.16112769  .00000054  00000+0  00000+0 0  9999
2 41550  55.7233 259.8090 0007021 274.3571  85.5971  1.70474991 39058
COSMOS 2516 (753)       
1 41554U 16032A   22245.77306728  .00000097  00000+0  00000+0 0  9990
2 41554  63.9080 238.7602 0015040 216.4146 307.4796  2.13106474 48746
BEIDOU-2 G7 (C03)       
1 41586U 16037A   22246.20766799 -.00000354  00000+0  00000+0 0  9994
2 41586   1.5414  67.5037 0007822 359.9853  99.9298  1.00264229 22916
E 117 W B (WAAS/PRN 131)
1 41589U 16038B   22246.20739671 -.00000013  00000+0  00000+0 0  9999
2 41589   0.0030 321.2498 0000373 208.1832 130.5555  1.00272503 22837
GSAT0207 (PRN E07)      
1 41859U 16069A   22246.17000686  .00000003  00000+0  00000+0 0  9994
2 41859  54.8339 139.4288 0003131 309.8258  50.2123  1.70472568 36045
GSAT0212 (PRN E03)      
1 41860U 16069B   22246.02340210  .00000004  00000+0  00000+0 0  9991
2 41860  54.8314 139.4303 0002583 342.5937  17.4637  1.70472587 36075
GSAT0213 (PRN E04)      
1 41861U 16069C   22244.62897457  .00000013  00000+0  00000+0 0  9996
2 41861  54.8335 139.4742 0003205 277.1718  82.8635  1.70472828 35912
GSAT0214 (PRN E05)      
1 41862U 16069D   22245.36270145  .00000009  00000+0  00000+0 0  9993
2 41862  54.8317 139.4483 0002085 282.3959  77.6498  1.70472621 36051
SES-15 (WAAS/PRN 133)   
1 42709U 17026A   22245.68194574  .00000060  00000+0  00000+0 0  9991
2 42709   0.0398 334.9226 0000400 153.1615 330.0743  1.00267989 20272
QZS-2 (QZSS/PRN 184)    
1 42738U 17028A   22246.35493590 -.00000108  00000+0  00000+0 0  9994
2 42738  41.6466 263.0675 0752577 270.0759  77.9210  1.00266127 19275
QZS-3 (QZSS/PRN 189)    
1 42917U 17048A   22245.82069441 -.00000348  00000+0  00000+0 0  9996
2 42917   0.0534 181.6034 0001808 343.9572 238.8383  1.00274805 18382
COSMOS 2522 (752)       
1 42939U 17055A   22245.92768475  .00000098  00000+0  00000+0 0  9993
2 42939  64.1417 239.1734 0010140 244.5083 253.5080  2.13102032 38506
QZS-4 (QZSS/PRN 185)    
1 42965U 17062A   22245.99167977 -.00000310  00000+0  00000+0 0  9995
2 42965  40.7521   1.1261 0747144 269.2873 206.9298  1.00285451 17934
BEIDOU-3 M1 (C19)       
1 43001U 17069A   22246.25203538  .00000001  00000+0  00000+0 0  9994
2 43001  55.5955 109.0766 0008532 297.5327 270.1517  1.86231839 32847
BEIDOU-3 M2 (C20)       
1 43002U 17069B   22245.04735633  .00000006  00000+0  00000+0 0  9992
2 43002  55.5952 109.1535 0007329 325.1922 197.7244  1.86231390 32812
GSAT0215 (PRN E21)      
1 43055U 17079A   22245.85268916  .00000058  00000+0  00000+0 0  9992
2 43055  55.6974 259.5925 0004142 270.1963  89.7919  1.70474088 29408
GSAT0216 (PRN E25)      
1 43056U 17079B   22244.97168804  .00000056  00000+0  00000+0 0  9998
2 43056  55.6988 259.6164 0005798 274.6671  85.3010  1.70474230 29406
GSAT0217 (PRN E27)      
1 43057U 17079C   22245.77853061  .00000058  00000+0  00000+0 0  9996
2 43057  55.6960 259.5940 0005248 284.1663  75.8109  1.70474204 29409
GSAT0218 (PRN E31)      
1 43058U 17079D   22244.23881826  .00000054  00000+0  00000+0 0  9993
2 43058  55.6971 259.6339 0006280 272.0153  87.9468  1.70474147 29400
BEIDOU-3 M3 (C27)       
1 43107U 18003A   22246.11005000 -.00000086  00000+0  00000+0 0  9993
2 43107  55.2894 350.0177 0004321  71.6696 249.9771  1.86232739 31596
BEIDOU-3 M4 (C28)       
1 43108U 18003B   22245.58036249 -.00000085  00000+0  00000+0 0  9992
2 43108  55.2829 350.0240 0002828 228.0008 141.9699  1.86230999 31597
BEIDOU-3 M5 (C21)       
1 43207U 18018A   22244.93628059  .00000006  00000+0  00000+0 0  9994
2 43207  55.5545 109.2328 0005316 358.6684   1.4202  1.86231889 30960
BEIDOU-3 M6 (C22)       
1 43208U 18018B   22245.00296194  .00000006  00000+0  00000+0 0  9995
2 43208  55.5549 109.2363 0006729 313.3702  46.6589  1.86231592 30962
BEIDOU-3 M7 (C29)       
1 43245U 18029A   22245.35596644 -.00000083  00000+0  00000+0 0  9995
2 43245  55.2000 347.8069 0000992 147.8561 298.6931  1.86232738 30125
BEIDOU-3 M8 (C30)       
1 43246U 18029B   22246.23873575 -.00000086  00000+0  10000-3 0  9993
2 43246  55.1966 347.8056 0002915   7.5790 357.4240  1.86232998 30131
IRNSS-1I                
1 43286U 18035A   22245.64706558  .00000088  00000+0  00000+0 0  9990
2 43286  29.2385  96.0970 0019432 179.0637 354.6156  1.00271129 16209
COSMOS 2527 (756)       
1 43508U 18053A   22246.41021704  .00000013  00000+0  00000+0 0  9994
2 43508  64.9847 120.2252 0007553 225.8664 314.4199  2.13102613 32800
BEIDOU IGSO-7 (C16)     
1 43539U 18057A   22245.77318656 -.00000133  00000+0  00000+0 0  9999
2 43539  55.0922 175.0472 0052594 228.7173 330.0387  1.00287195 15283
GSAT0221 (PRN E15)      
1 43564U 18060A   22245.31078557 -.00000067  00000+0  00000+0 0  9990
2 43564  57.2017  19.1083 0002332 246.3121 113.6695  1.70475914 25575
